{
  "type": "FeatureCollection",
  "features": [
    {
      "type": "Feature",
      "properties": {
        "norad_id": 34761,
        "name": "COSMOS 2251 DEB",
        "group": "cosmos-2251-debris",
        "lat": 64.63568407204066,
        "lon": 145.8680717115972,
        "alt_km": 750.4981595255313,
        "timestamp": "2025-12-12T14:39:18.327683+00:00",
        "meta_object_name": "COSMOS 2251 DEB",
        "meta_object_id": "1993-036AAF",
        "meta_epoch": "2025-12-12T07:28:13.558656",
        "meta_mean_motion": 14.38046835,
        "meta_eccentricity": 0.00363795,
        "meta_inclination": 74.0297,
        "meta_ra_of_asc_node": 3.581,
        "meta_arg_of_pericenter": 37.8056,
        "meta_mean_anomaly": 322.5642,
        "meta_ephemeris_type": 0,
        "meta_classification_type": "U",
        "meta_norad_cat_id": 34761,
        "meta_element_set_no": 999,
        "meta_rev_at_epoch": 87643,
        "meta_bstar": 0.00091922509,
        "meta_mean_motion_dot": 2.779e-05,
        "meta_mean_motion_ddot": 0,
        "tle_line1": "1 34761U 93036AAF 25346.31126804  .00002779  00000+0  91923-3 0  9998",
        "tle_line2": "2 34761  74.0297   3.5810 0036379  37.8056 322.5642 14.38046835876430"
      },
      "geometry": {
        "type": "Point",
        "coordinates": [
          145.8680717115972,
          64.63568407204066
        ]
      }
    },
    {
      "type": "Feature",
      "properties": {
        "norad_id": 34784,
        "name": "COSMOS 2251 DEB",
        "group": "cosmos-2251-debris",
        "lat": -28.992921319090936,
        "lon": -44.54102047768364,
        "alt_km": 729.8116629607484,
        "timestamp": "2025-12-12T14:39:18.327692+00:00",
        "meta_object_name": "COSMOS 2251 DEB",
        "meta_object_id": "1993-036AAM",
        "meta_epoch": "2025-12-12T00:00:06.416928",
        "meta_mean_motion": 14.60774143,
        "meta_eccentricity": 0.0049435,
        "meta_inclination": 74.0075,
        "meta_ra_of_asc_node": 325.7716,
        "meta_arg_of_pericenter": 135.3394,
        "meta_mean_anomaly": 225.1771,
        "meta_ephemeris_type": 0,
        "meta_classification_type": "U",
        "meta_norad_cat_id": 34784,
        "meta_element_set_no": 999,
        "meta_rev_at_epoch": 88524,
        "meta_bstar": 0.00076688,
        "meta_mean_motion_dot": 3.779e-05,
        "meta_mean_motion_ddot": 0,
        "tle_line1": "1 34784U 93036AAM 25346.00007427  .00003779  00000+0  76688-3 0  9990",
        "tle_line2": "2 34784  74.0075 325.7716 0049435 135.3394 225.1771 14.60774143885244"
      },
      "geometry": {
        "type": "Point",
        "coordinates": [
          -44.54102047768364,
          -28.992921319090936
        ]
      }
    },
    {
      "type": "Feature",
      "properties": {
        "norad_id": 34790,
        "name": "COSMOS 2251 DEB",
        "group": "cosmos-2251-debris",
        "lat": 62.04778929316374,
        "lon": 31.330223900727127,
        "alt_km": 874.0454230974992,
        "timestamp": "2025-12-12T14:39:18.327701+00:00",
        "meta_object_name": "COSMOS 2251 DEB",
        "meta_object_id": "1993-036AAT",
        "meta_epoch": "2025-12-12T04:44:34.895904",
        "meta_mean_motion": 14.2462878,
        "meta_eccentricity": 0.01007462,
        "meta_inclination": 74.0522,
        "meta_ra_of_asc_node": 244.6799,
        "meta_arg_of_pericenter": 306.4348,
        "meta_mean_anomaly": 209.2227,
        "meta_ephemeris_type": 0,
        "meta_classification_type": "U",
        "meta_norad_cat_id": 34790,
        "meta_element_set_no": 999,
        "meta_rev_at_epoch": 86565,
        "meta_bstar": 0.0010742752,
        "meta_mean_motion_dot": 2.606e-05,
        "meta_mean_motion_ddot": 0,
        "tle_line1": "1 34790U 93036AAT 25346.19762611  .00002606  00000+0  10743-2 0  9997",
        "tle_line2": "2 34790  74.0522 244.6799 0100746 306.4348 209.2227 14.24628780865658"
      },
      "geometry": {
        "type": "Point",
        "coordinates": [
          31.330223900727127,
          62.04778929316374
        ]
      }
    },
    {
      "type": "Feature",
      "properties": {
        "norad_id": 34792,
        "name": "COSMOS 2251 DEB",
        "group": "cosmos-2251-debris",
        "lat": 44.373068601512934,
        "lon": -173.76185073789125,
        "alt_km": 709.1730491770959,
        "timestamp": "2025-12-12T14:39:18.327710+00:00",
        "meta_object_name": "COSMOS 2251 DEB",
        "meta_object_id": "1993-036AAV",
        "meta_epoch": "2025-12-12T07:00:34.627680",
        "meta_mean_motion": 14.55948251,
        "meta_eccentricity": 0.00124489,
        "meta_inclination": 74.0176,
        "meta_ra_of_asc_node": 170.5586,
        "meta_arg_of_pericenter": 264.6967,
        "meta_mean_anomaly": 272.9353,
        "meta_ephemeris_type": 0,
        "meta_classification_type": "U",
        "meta_norad_cat_id": 34792,
        "meta_element_set_no": 999,
        "meta_rev_at_epoch": 87643,
        "meta_bstar": 0.001550949,
        "meta_mean_motion_dot": 6.802e-05,
        "meta_mean_motion_ddot": 0,
        "tle_line1": "1 34792U 93036AAV 25346.29206745  .00006802  00000+0  15509-2 0  9998",
        "tle_line2": "2 34792  74.0176 170.5586 0012448 264.6967 272.9353 14.55948251876436"
      },
      "geometry": {
        "type": "Point",
        "coordinates": [
          -173.76185073789125,
          44.373068601512934
        ]
      }
    },
    {
      "type": "Feature",
      "properties": {
        "norad_id": 34793,
        "name": "COSMOS 2251 DEB",
        "group": "cosmos-2251-debris",
        "lat": -13.198460236368932,
        "lon": 74.46338890580182,
        "alt_km": 797.8246378906897,
        "timestamp": "2025-12-12T14:39:18.327732+00:00",
        "meta_object_name": "COSMOS 2251 DEB",
        "meta_object_id": "1993-036AAW",
        "meta_epoch": "2025-12-12T04:29:36.240000",
        "meta_mean_motion": 14.38643294,
        "meta_eccentricity": 0.00502694,
        "meta_inclination": 74.0027,
        "meta_ra_of_asc_node": 251.3876,
        "meta_arg_of_pericenter": 45.6431,
        "meta_mean_anomaly": 115.7084,
        "meta_ephemeris_type": 0,
        "meta_classification_type": "U",
        "meta_norad_cat_id": 34793,
        "meta_element_set_no": 999,
        "meta_rev_at_epoch": 87322,
        "meta_bstar": 0.00039934426,
        "meta_mean_motion_dot": 1.216e-05,
        "meta_mean_motion_ddot": 0,
        "tle_line1": "1 34793U 93036AAW 25346.18722500  .00001216  00000+0  39934-3 0  9992",
        "tle_line2": "2 34793  74.0027 251.3876 0050269  45.6431 115.7084 14.38643294873227"
      },
      "geometry": {
        "type": "Point",
        "coordinates": [
          74.46338890580182,
          -13.198460236368932
        ]
      }
    },
    {
      "type": "Feature",
      "properties": {
        "norad_id": 34796,
        "name": "COSMOS 2251 DEB",
        "group": "cosmos-2251-debris",
        "lat": -70.11873221489985,
        "lon": 164.2241154213473,
        "alt_km": 679.4349328281114,
        "timestamp": "2025-12-12T14:39:18.327741+00:00",
        "meta_object_name": "COSMOS 2251 DEB",
        "meta_object_id": "1993-036AAZ",
        "meta_epoch": "2025-12-11T15:56:49.295616",
        "meta_mean_motion": 14.48680944,
        "meta_eccentricity": 0.01002247,
        "meta_inclination": 74.0297,
        "meta_ra_of_asc_node": 218.361,
        "meta_arg_of_pericenter": 320.6455,
        "meta_mean_anomaly": 69.5316,
        "meta_ephemeris_type": 0,
        "meta_classification_type": "U",
        "meta_norad_cat_id": 34796,
        "meta_element_set_no": 999,
        "meta_rev_at_epoch": 88012,
        "meta_bstar": 0.00094017782,
        "meta_mean_motion_dot": 3.746e-05,
        "meta_mean_motion_ddot": 0,
        "tle_line1": "1 34796U 93036AAZ 25345.66445944  .00003746  00000+0  94018-3 0  9995",
        "tle_line2": "2 34796  74.0297 218.3610 0100224 320.6455  69.5316 14.48680944880122"
      },
      "geometry": {
        "type": "Point",
        "coordinates": [
          164.2241154213473,
          -70.11873221489985
        ]
      }
    },
    {
      "type": "Feature",
      "properties": {
        "norad_id": 34797,
        "name": "COSMOS 2251 DEB",
        "group": "cosmos-2251-debris",
        "lat": 45.64457069585199,
        "lon": 117.3193092995245,
        "alt_km": 794.6100698653427,
        "timestamp": "2025-12-12T14:39:18.327751+00:00",
        "meta_object_name": "COSMOS 2251 DEB",
        "meta_object_id": "1993-036ABA",
        "meta_epoch": "2025-12-08T02:15:30.483648",
        "meta_mean_motion": 14.42690241,
        "meta_eccentricity": 0.00721111,
        "meta_inclination": 73.9779,
        "meta_ra_of_asc_node": 108.638,
        "meta_arg_of_pericenter": 222.8023,
        "meta_mean_anomaly": 136.7506,
        "meta_ephemeris_type": 0,
        "meta_classification_type": "U",
        "meta_norad_cat_id": 34797,
        "meta_element_set_no": 999,
        "meta_rev_at_epoch": 87348,
        "meta_bstar": 0.0033221371,
        "meta_mean_motion_dot": 0.00011397,
        "meta_mean_motion_ddot": 0,
        "tle_line1": "1 34797U 93036ABA 25342.09410282  .00011397  00000+0  33221-2 0  9996",
        "tle_line2": "2 34797  73.9779 108.6380 0072111 222.8023 136.7506 14.42690241873482"
      },
      "geometry": {
        "type": "Point",
        "coordinates": [
          117.3193092995245,
          45.64457069585199
        ]
      }
    }
  ]
}